#aV2008  2  5  0  0   .00000000      96 DD+AD WGS84 FIT  NGA
## 1465 172800.00000000   900.00000000 54501  .0000000000000
+   31     1  2  3  4  5  6  8  9 10 11 12 13 14 15 16 17 18
+         19 20 21 22 23 24 25 26 27 28 29 30 31 32  0  0  0
+          0  0  0  0  0  0  0  0  0  0  0  0  0  0  0  0  0
+          0  0  0  0  0  0  0  0  0  0  0  0  0  0  0  0  0
+          0  0  0  0  0  0  0  0  0  0  0  0  0  0  0  0  0
++         0  0  0  0  0  0  0  0  0  0  0  0  0  0  0  0  0
++         0  0  0  0  0  0  0  0  0  0  0  0  0  0  0  0  0
++         0  0  0  0  0  0  0  0  0  0  0  0  0  0  0  0  0
++         0  0  0  0  0  0  0  0  0  0  0  0  0  0  0  0  0
++         0  0  0  0  0  0  0  0  0  0  0  0  0  0  0  0  0
%c cc cc ccc ccc cccc cccc cccc cccc ccccc ccccc ccccc ccccc
%c cc cc ccc ccc cccc cccc cccc cccc ccccc ccccc ccccc ccccc
%f  0.0000000  0.000000000  0.00000000000  0.000000000000000
%f  0.0000000  0.000000000  0.00000000000  0.000000000000000
%i    0    0    0    0      0      0      0      0         0
%i    0    0    0    0      0      0      0      0         0
/*      NGA, ST. LOUIS,MO.                                  
/*   EPHEMERIS COMPUTED FROM  3 DAYS OF DATA                
/* CCCCCCCCCCCCCCCCCCCCCCCCCCCCCCCCCCCCCCCCCCCCCCCCCCCCCCCCC
/* CCCCCCCCCCCCCCCCCCCCCCCCCCCCCCCCCCCCCCCCCCCCCCCCCCCCCCCCC
*  2008  2  5 19 15   .00000000                                                 
P  1 -16962.977234  16866.107021 -11244.861848    183.778178                    
V  1   5168.510935 -13760.040915 -27958.673038       .024749                    
P  2  17792.813532 -12687.883297  14682.614576    172.014160                    
V  2  19322.457620    576.582943 -22959.374145       .030595                    
P  3 -10601.253839  23853.267060   3517.145057    183.115314                    
V  3  -2473.326354  -5897.479316  30751.184858       .053476                    
P  4  25625.894867  -5900.672917   4852.704757     -3.895849                    
V  4   6478.575135   2409.164665 -30320.782001      -.063090                    
P  5 -15862.800721 -21254.893064  -2742.285309    677.177618                    
V  5   4524.403831    255.404368 -30989.551309       .153054                    
P  6 -14671.656696  -6114.832501  21467.365433      7.156286                    
V  6  10048.129916 -24993.602135   -299.306594       .191582                    
P  8  26653.271555    491.669156   2817.886712   -139.815064                    
V  8  -3535.633356   1941.707953  31640.043109      -.014644                    
P  9  -5174.399991 -14640.033900 -22181.691602    109.109605                    
V  9  26368.889950  -3893.673186  -3516.393116       .017766                    
P 10   4226.604797 -17460.369440  19320.397133   -236.308413                    
V 10  15267.654037  19726.835550  14719.361396      -.133724                    
P 11   9082.957245  14551.961494 -20464.701780     27.042639                    
V 11 -24688.697453   7996.051010  -4982.028909       .000099                    
P 12 -11262.974545 -23202.714772  -6417.126183   -355.881896                    
V 12   6911.119145   5185.232035 -30360.117893      -.008104                    
P 13  10751.172383  10272.655790  21904.438082    238.465126                    
V 13 -12755.397027  24896.647601  -5360.654655       .021930                    
P 14 -17147.977857   7076.851359 -18870.336849   -299.974614                    
V 14   9460.716435 -22233.218689 -16930.619494       .029948                    
P 15   5482.272491 -25022.000425  -7001.152902    -74.836170                    
V 15   6092.173988  -7091.981280  29990.593747      -.023432                    
P 16  -7908.379426  14157.566851  21078.905131    132.728246                    
V 16 -15877.821335 -21368.959163   8598.294703       .002567                    
P 17  17461.496291  -6219.198114 -18942.632676     43.065049                    
V 17  -8731.453111  22573.305037 -15590.301713      -.006841                    
P 18 -18982.730626 -16113.916672  -9554.621631   -206.721830                    
V 18  -4647.699499 -11666.596976  28058.648325       .029844                    
P 19  -6857.001349  24379.623206  -7633.353121     19.637074                    
V 19  -7176.408342   7346.412266  29748.769072       .014886                    
P 20  13121.372889  22732.982231  -4343.064991    121.155294                    
V 20  -5680.411633  -2467.510347 -30821.484225      -.007434                    
P 21 -23563.268878  -6507.301300  11246.755006     72.279129                    
V 21  13649.582997  -3606.571830  26295.330209      -.007419                    
P 22 -18205.842857  -2823.077669 -18989.876201    208.094924                    
V 22 -12173.166716 -21286.486206  14676.684303       .006973                    
P 23   1872.045443  21428.554771  15359.294957    331.868259                    
V 23  -9843.558952  17164.260959 -22876.596076       .028735                    
P 24 -12165.404189 -13298.030575  19586.500957     68.205260                    
V 24  24509.560065  -2703.182673  13792.155531       .030321                    
P 25  17604.787212   9183.353546  17921.178655    508.216568                    
V 25 -21344.197693   5912.536976  18484.172983       .046866                    
P 26   8426.348143 -24422.864643  -5148.724982    175.383191                    
V 26   4597.116072  -4442.343027  31945.263395       .102223                    
P 27  22780.913862   5532.885752  13317.165920    165.788664                    
V 27 -15243.365701   4326.454440  25416.169248       .026694                    
P 28  18868.091014   6036.243429 -17490.440942    -14.739339                    
V 28  11635.376024  19669.459158  18605.076530      -.005245                    
P 29  -9235.787781 -14225.881152  20560.968539    -64.958917                    
V 29  11816.748577 -23005.293907 -10642.937010       .064307                    
P 30 -18234.485608 -18969.944022   3661.811789     62.699804                    
V 30   -663.433775  -5898.740941 -30955.710978       .014985                    
P 31 -24441.984292   7732.142386   7338.941832     -8.099335                    
V 31  -9214.381774  -1414.929043 -29970.344921      -.014327                    
P 32 -13996.140871   5244.424449 -21490.101846    220.879416                    
V 32 -14342.407172 -24471.088152   3460.357720       .095840                    
EOF
